{
  "type": "FeatureCollection",
  "name": "india_coastal_fishing_sectors",
  "crs": { "type": "name", "properties": { "name": "urn:ogc:def:crs:OGC:1.3:CRS84" } },
  "features": [
    {
      "type": "Feature",
      "properties": {
        "sector_id": "SEC-NW-01",
        "name": "Gujarat & Saurashtra Shelf Fishery Sector",
        "coastal_state": "Gujarat",
        "zone": "North-West Arabian Sea",
        "primary_catch": "Ribbonfish, Croakers, Pomfret, Squid",
        "trawling_regulation": "Monsoon Trawl Ban: June 1 - July 31",
        "depth_range_m": "10 - 100m"
      },
      "geometry": {
        "type": "Polygon",
        "coordinates": [
          [
            [68.50, 23.50],
            [70.50, 20.00],
            [72.50, 20.50],
            [72.80, 21.80],
            [69.50, 22.80],
            [68.50, 23.50]
          ]
        ]
      }
    },
    {
      "type": "Feature",
      "properties": {
        "sector_id": "SEC-WC-02",
        "name": "Maharashtra Konkan Coast Fishery Sector",
        "coastal_state": "Maharashtra",
        "zone": "Central-West Arabian Sea",
        "primary_catch": "Bombay Duck, Mackerel, Prawns, Seer Fish",
        "trawling_regulation": "Monsoon Trawl Ban: June 10 - August 15",
        "depth_range_m": "20 - 150m"
      },
      "geometry": {
        "type": "Polygon",
        "coordinates": [
          [
            [71.50, 20.00],
            [71.80, 15.80],
            [73.70, 15.80],
            [72.80, 19.50],
            [71.50, 20.00]
          ]
        ]
      }
    },
    {
      "type": "Feature",
      "properties": {
        "sector_id": "SEC-SW-03",
        "name": "Malabar & Karnataka Coastal Fishery Sector",
        "coastal_state": "Karnataka & Goa",
        "zone": "South-West Arabian Sea",
        "primary_catch": "Indian Mackerel, Sardines, Squid, Tuna",
        "trawling_regulation": "Monsoon Trawl Ban: June 15 - July 31",
        "depth_range_m": "15 - 200m"
      },
      "geometry": {
        "type": "Polygon",
        "coordinates": [
          [
            [72.20, 15.80],
            [73.00, 12.80],
            [74.80, 12.80],
            [73.80, 15.80],
            [72.20, 15.80]
          ]
        ]
      }
    },
    {
      "type": "Feature",
      "properties": {
        "sector_id": "SEC-SW-04",
        "name": "Kerala & Wadge Bank Fishery Sector",
        "coastal_state": "Kerala",
        "zone": "South-West Arabian Sea & Indian Ocean Confluence",
        "primary_catch": "Oil Sardine, Anchovies, Deep-sea Shrimp, Yellowfin Tuna",
        "trawling_regulation": "Monsoon Trawl Ban: June 9 - July 31",
        "depth_range_m": "20 - 500m"
      },
      "geometry": {
        "type": "Polygon",
        "coordinates": [
          [
            [73.50, 12.80],
            [75.00, 7.50],
            [77.80, 7.50],
            [76.30, 10.00],
            [74.90, 12.80],
            [73.50, 12.80]
          ]
        ]
      }
    },
    {
      "type": "Feature",
      "properties": {
        "sector_id": "SEC-SE-05",
        "name": "Tamil Nadu & Coromandel Coast Fishery Sector",
        "coastal_state": "Tamil Nadu & Puducherry",
        "zone": "South-East Bay of Bengal",
        "primary_catch": "Snappers, Groupers, Crabs, Squid, Ribbonfish",
        "trawling_regulation": "East Coast Ban: April 15 - June 14",
        "depth_range_m": "10 - 200m"
      },
      "geometry": {
        "type": "Polygon",
        "coordinates": [
          [
            [77.80, 7.50],
            [80.50, 8.50],
            [81.20, 13.50],
            [80.30, 13.50],
            [79.80, 10.50],
            [77.80, 7.50]
          ]
        ]
      }
    },
    {
      "type": "Feature",
      "properties": {
        "sector_id": "SEC-EC-06",
        "name": "Andhra Pradesh Godavari-Krishna Pelagic Sector",
        "coastal_state": "Andhra Pradesh",
        "zone": "Central-East Bay of Bengal",
        "primary_catch": "Hilsa, Seer Fish, Pomfret, Tiger Prawns",
        "trawling_regulation": "East Coast Ban: April 15 - June 14",
        "depth_range_m": "15 - 300m"
      },
      "geometry": {
        "type": "Polygon",
        "coordinates": [
          [
            [80.30, 13.50],
            [81.20, 13.50],
            [84.50, 18.50],
            [83.50, 18.50],
            [80.30, 13.50]
          ]
        ]
      }
    },
    {
      "type": "Feature",
      "properties": {
        "sector_id": "SEC-NE-07",
        "name": "Odisha & Bengal Delta Marine Fishery Sector",
        "coastal_state": "Odisha & West Bengal",
        "zone": "North-East Bay of Bengal",
        "primary_catch": "Hilsa shad, Silver Pomfret, Catfish, Scampi",
        "trawling_regulation": "East Coast Ban: April 15 - June 14",
        "depth_range_m": "10 - 150m"
      },
      "geometry": {
        "type": "Polygon",
        "coordinates": [
          [
            [83.50, 18.50],
            [84.50, 18.50],
            [89.50, 21.50],
            [87.50, 21.80],
            [83.50, 18.50]
          ]
        ]
      }
    }
  ]
}
